{
  "norad_id": 49431,
  "name": "STARLINK-3153",
  "history": [
    {
      "epoch": "2026-03-28T20:31:39.984960Z",
      "apogee_km": 540.7484497171936,
      "perigee_km": 538.5906474985522,
      "latitude_deg": -1.7725731888213677e-07,
      "longitude_deg": 9.07741425397472,
      "height_km": 540.4618500080707,
      "semi_major_axis_km": 6917.806548607872,
      "eccentricity": 0.00015596,
      "inclination_deg": 53.2164,
      "raan_deg": 143.2638,
      "arg_perigee_deg": 84.5196,
      "mean_anomaly_deg": 275.5974,
      "mean_motion_rev_day": 15.08864158
    }
  ]
}