{"fetched_at":"2026-03-30T09:12:31Z","count":15922,"tles":[{"name":"STARLINK-3153","line1":"1 49431U 21104Z   26087.85532390 -.00005996  00000+0 -35867-3 0  9999","line2":"2 49431  53.2164 143.2638 0001559  84.5196 275.5974 15.08864158241523","category":"Starlink"}]}